{"type": "FeatureCollection", "features": [ {"type": "Feature", "properties": {"norad_id": 36539, "name": "COSMOS 2251 DEB", "group": "cosmos-2251-debris", "lat": 17.089638964161843, "lon": 59.44261618687343, "alt_km": 714.8374485150107, "timestamp": "2025-12-13T03:42:11.669448+00:00", "meta": {"OBJECT_NAME": "COSMOS 2251 DEB", "OBJECT_ID": "1993-036BCZ", "EPOCH": "2025-12-12T06:13:57.423360", "MEAN_MOTION": 14.59298879, "ECCENTRICITY": 0.00272348, "INCLINATION": 74.0237, "RA_OF_ASC_NODE": 56.0953, "ARG_OF_PERICENTER": 201.323, "MEAN_ANOMALY": 158.6803, "EPHEMERIS_TYPE": 0, "CLASSIFICATION_TYPE": "U", "NORAD_CAT_ID": 36539, "ELEMENT_SET_NO": 999, "REV_AT_EPOCH": 83940, "BSTAR": 0.0011935957, "MEAN_MOTION_DOT": 5.645e-05, "MEAN_MOTION_DDOT": 0}, "tle": {"line1": "1 36539U 93036BCZ 25346.25969240  .00005645  00000+0  11936-2 0  9995", "line2": "2 36539  74.0237  56.0953 0027234 201.3230 158.6803 14.59298879839405"}}, "geometry": {"type": "Point", "coordinates": [59.44261618687343, 17.089638964161843]}}, {"type": "Feature", "properties": {"norad_id": 36540, "name": "COSMOS 2251 DEB", "group": "cosmos-2251-debris", "lat": -20.518158536552136, "lon": 173.57397698207785, "alt_km": 702.7340733465899, "timestamp": "2025-12-13T03:42:11.669458+00:00", "meta": {"OBJECT_NAME": "COSMOS 2251 DEB", "OBJECT_ID": "1993-036BDA", "EPOCH": "2025-12-12T06:24:00.691488", "MEAN_MOTION": 14.58475049, "ECCENTRICITY": 0.00149949, "INCLINATION": 74.0281, "RA_OF_ASC_NODE": 181.4168, "ARG_OF_PERICENTER": 251.6465, "MEAN_ANOMALY": 108.307, "EPHEMERIS_TYPE": 0, "CLASSIFICATION_TYPE": "U", "NORAD_CAT_ID": 36540, "ELEMENT_SET_NO": 999, "REV_AT_EPOCH": 86003, "BSTAR": 0.0016589862, "MEAN_MOTION_DOT": 7.692e-05, "MEAN_MOTION_DDOT": 0}, "tle": {"line1": "1 36540U 93036BDA 25346.26667467  .00007692  00000+0  16590-2 0  9999", "line2": "2 36540  74.0281 181.4168 0014994 251.6465 108.3070 14.58475049860030"}}, "geometry": {"type": "Point", "coordinates": [173.57397698207785, -20.518158536552136]}}, {"type": "Feature", "properties": {"norad_id": 36550, "name": "COSMOS 2251 DEB", "group": "cosmos-2251-debris", "lat": 46.38644803064457, "lon": -5.483952714453004, "alt_km": 816.8847033579523, "timestamp": "2025-12-13T03:42:11.669471+00:00", "meta": {"OBJECT_NAME": "COSMOS 2251 DEB", "OBJECT_ID": "1993-036BDL", "EPOCH": "2025-12-12T06:53:46.055040", "MEAN_MOTION": 14.27197589, "ECCENTRICITY": 0.00783785, "INCLINATION": 74.0439, "RA_OF_ASC_NODE": 193.5589, "ARG_OF_PERICENTER": 244.3101, "MEAN_ANOMALY": 114.994, "EPHEMERIS_TYPE": 0, "CLASSIFICATION_TYPE": "U", "NORAD_CAT_ID": 36550, "ELEMENT_SET_NO": 999, "REV_AT_EPOCH": 84589, "BSTAR": 0.00090622054, "MEAN_MOTION_DOT": 2.261e-05, "MEAN_MOTION_DDOT": 0}, "tle": {"line1": "1 36550U 93036BDL 25346.28733860  .00002261  00000+0  90622-3 0  9999", "line2": "2 36550  74.0439 193.5589 0078378 244.3101 114.9940 14.27197589845891"}}, "geometry": {"type": "Point", "coordinates": [-5.483952714453004, 46.38644803064457]}}, {"type": "Feature", "properties": {"norad_id": 36551, "name": "COSMOS 2251 DEB", "group": "cosmos-2251-debris", "lat": -55.82609546727824, "lon": -11.34981117358128, "alt_km": 532.8428541919629, "timestamp": "2025-12-13T03:42:11.669482+00:00", "meta": {"OBJECT_NAME": "COSMOS 2251 DEB", "OBJECT_ID": "1993-036BDM", "EPOCH": "2025-12-11T08:49:13.161216", "MEAN_MOTION": 15.02499936, "ECCENTRICITY": 0.00508907, "INCLINATION": 73.8866, "RA_OF_ASC_NODE": 17.5288, "ARG_OF_PERICENTER": 326.8446, "MEAN_ANOMALY": 32.9554, "EPHEMERIS_TYPE": 0, "CLASSIFICATION_TYPE": "U", "NORAD_CAT_ID": 36551, "ELEMENT_SET_NO": 999, "REV_AT_EPOCH": 66911, "BSTAR": 0.0023963096, "MEAN_MOTION_DOT": 0.00032841, "MEAN_MOTION_DDOT": 0}, "tle": {"line1": "1 36551U 93036BDM 25345.36751344  .00032841  00000+0  23963-2 0  9995", "line2": "2 36551  73.8866  17.5288 0050890 326.8446  32.9554 15.02499936669115"}}, "geometry": {"type": "Point", "coordinates": [-11.34981117358128, -55.82609546727824]}}, {"type": "Feature", "properties": {"norad_id": 36557, "name": "COSMOS 2251 DEB", "group": "cosmos-2251-debris", "lat": -62.164427419217574, "lon": -21.59853778128233, "alt_km": 628.827569643955, "timestamp": "2025-12-13T03:42:11.669492+00:00", "meta": {"OBJECT_NAME": "COSMOS 2251 DEB", "OBJECT_ID": "1993-036BDT", "EPOCH": "2025-12-11T16:28:44.136480", "MEAN_MOTION": 14.78160391, "ECCENTRICITY": 0.00210346, "INCLINATION": 73.9786, "RA_OF_ASC_NODE": 128.3248, "ARG_OF_PERICENTER": 280.1534, "MEAN_ANOMALY": 79.7268, "EPHEMERIS_TYPE": 0, "CLASSIFICATION_TYPE": "U", "NORAD_CAT_ID": 36557, "ELEMENT_SET_NO": 999, "REV_AT_EPOCH": 33881, "BSTAR": 0.0052972788, "MEAN_MOTION_DOT": 0.00038702, "MEAN_MOTION_DDOT": 0}, "tle": {"line1": "1 36557U 93036BDT 25345.68662195  .00038702  00000+0  52973-2 0  9996", "line2": "2 36557  73.9786 128.3248 0021034 280.1534  79.7268 14.78160391338811"}}, "geometry": {"type": "Point", "coordinates": [-21.59853778128233, -62.164427419217574]}}, {"type": "Feature", "properties": {"norad_id": 36558, "name": "COSMOS 2251 DEB", "group": "cosmos-2251-debris", "lat": 27.188646258745933, "lon": -34.69222189414463, "alt_km": 706.7059765024278, "timestamp": "2025-12-13T03:42:11.669502+00:00", "meta": {"OBJECT_NAME": "COSMOS 2251 DEB", "OBJECT_ID": "1993-036BDU", "EPOCH": "2025-12-09T18:10:09.606432", "MEAN_MOTION": 14.55323693, "ECCENTRICITY": 0.00129627, "INCLINATION": 74.0418, "RA_OF_ASC_NODE": 160.1895, "ARG_OF_PERICENTER": 248.6111, "MEAN_ANOMALY": 111.367, "EPHEMERIS_TYPE": 0, "CLASSIFICATION_TYPE": "U", "NORAD_CAT_ID": 36558, "ELEMENT_SET_NO": 999, "REV_AT_EPOCH": 85225, "BSTAR": 0.0013992246, "MEAN_MOTION_DOT": 6.051e-05, "MEAN_MOTION_DDOT": 0}, "tle": {"line1": "1 36558U 93036BDU 25343.75705563  .00006051  00000+0  13992-2 0  9990", "line2": "2 36558  74.0418 160.1895 0012962 248.6111 111.3670 14.55323693852258"}}, "geometry": {"type": "Point", "coordinates": [-34.69222189414463, 27.188646258745933]}}, {"type": "Feature", "properties": {"norad_id": 36559, "name": "COSMOS 2251 DEB", "group": "cosmos-2251-debris", "lat": -67.63293063249564, "lon": -127.16195900800479, "alt_km": 1076.673354422318, "timestamp": "2025-12-13T03:42:11.669513+00:00", "meta": {"OBJECT_NAME": "COSMOS 2251 DEB", "OBJECT_ID": "1993-036BDV", "EPOCH": "2025-12-09T02:07:20.280288", "MEAN_MOTION": 13.95143806, "ECCENTRICITY": 0.02599602, "INCLINATION": 74.1299, "RA_OF_ASC_NODE": 16.0496, "ARG_OF_PERICENTER": 49.9692, "MEAN_ANOMALY": 312.3935, "EPHEMERIS_TYPE": 0, "CLASSIFICATION_TYPE": "U", "NORAD_CAT_ID": 36559, "ELEMENT_SET_NO": 999, "REV_AT_EPOCH": 81043, "BSTAR": 0.0028021544, "MEAN_MOTION_DOT": 4.995e-05, "MEAN_MOTION_DDOT": 0}, "tle": {"line1": "1 36559U 93036BDV 25343.08842917  .00004995  00000+0  28022-2 0  9997", "line2": "2 36559  74.1299  16.0496 0259960  49.9692 312.3935 13.95143806810430"}}, "geometry": {"type": "Point", "coordinates": [-127.16195900800479, -67.63293063249564]}}, {"type": "Feature", "properties": {"norad_id": 36614, "name": "COSMOS 2251 DEB", "group": "cosmos-2251-debris", "lat": 4.072473044402366, "lon": -7.374461438232422, "alt_km": 689.9816381729588, "timestamp": "2025-12-13T03:42:11.669523+00:00", "meta": {"OBJECT_NAME": "COSMOS 2251 DEB", "OBJECT_ID": "1993-036BEC", "EPOCH": "2025-12-11T06:30:21.400992", "MEAN_MOTION": 14.60233542, "ECCENTRICITY": 0.00161993, "INCLINATION": 74.0218, "RA_OF_ASC_NODE": 177.391, "ARG_OF_PERICENTER": 247.2616, "MEAN_ANOMALY": 112.6838, "EPHEMERIS_TYPE": 0, "CLASSIFICATION_TYPE": "U", "NORAD_CAT_ID": 36614, "ELEMENT_SET_NO": 999, "REV_AT_EPOCH": 65591, "BSTAR": 0.0024222077, "MEAN_MOTION_DOT": 0.00011696, "MEAN_MOTION_DDOT": 0}, "tle": {"line1": "1 36614U 93036BEC 25345.27108103  .00011696  00000+0  24222-2 0  9998", "line2": "2 36614  74.0218 177.3910 0016199 247.2616 112.6838 14.60233542655911"}}, "geometry": {"type": "Point", "coordinates": [-7.374461438232422, 4.072473044402366]}}, {"type": "Feature", "properties": {"norad_id": 36622, "name": "COSMOS 2251 DEB", "group": "cosmos-2251-debris", "lat": -72.93297765817712, "lon": 33.70177394261531, "alt_km": 601.8450902537306, "timestamp": "2025-12-13T03:42:11.669533+00:00", "meta": {"OBJECT_NAME": "COSMOS 2251 DEB", "OBJECT_ID": "1993-036BEL", "EPOCH": "2025-12-11T03:20:19.282848", "MEAN_MOTION": 14.76172816, "ECCENTRICITY": 0.00687572, "INCLINATION": 74.0131, "RA_OF_ASC_NODE": 148.6142, "ARG_OF_PERICENTER": 284.3167, "MEAN_ANOMALY": 75.0379, "EPHEMERIS_TYPE": 0, "CLASSIFICATION_TYPE": "U", "NORAD_CAT_ID": 36622, "ELEMENT_SET_NO": 999, "REV_AT_EPOCH": 66726, "BSTAR": 0.0010925577, "MEAN_MOTION_DOT": 7.825e-05, "MEAN_MOTION_DDOT": 0}, "tle": {"line1": "1 36622U 93036BEL 25345.13911207  .00007825  00000+0  10926-2 0  9994", "line2": "2 36622  74.0131 148.6142 0068757 284.3167  75.0379 14.76172816667268"}}, "geometry": {"type": "Point", "coordinates": [33.70177394261531, -72.93297765817712]}}, {"type": "Feature", "properties": {"norad_id": 36632, "name": "COSMOS 2251 DEB", "group": "cosmos-2251-debris", "lat": 16.006206023984543, "lon": -63.67949493551957, "alt_km": 727.2921245507123, "timestamp": "2025-12-13T03:42:11.669543+00:00", "meta": {"OBJECT_NAME": "COSMOS 2251 DEB", "OBJECT_ID": "1993-036BEW", "EPOCH": "2025-12-11T03:22:48.137088", "MEAN_MOTION": 14.43159024, "ECCENTRICITY": 0.00319439, "INCLINATION": 74.0027, "RA_OF_ASC_NODE": 295.3456, "ARG_OF_PERICENTER": 43.4523, "MEAN_ANOMALY": 316.9142, "EPHEMERIS_TYPE": 0, "CLASSIFICATION_TYPE": "U", "NORAD_CAT_ID": 36632, "ELEMENT_SET_NO": 999, "REV_AT_EPOCH": 65192, "BSTAR": 0.001324385, "MEAN_MOTION_DOT": 4.453e-05, "MEAN_MOTION_DDOT": 0}, "tle": {"line1": "1 36632U 93036BEW 25345.14083492  .00004453  00000+0  13244-2 0  9992", "line2": "2 36632  74.0027 295.3456 0031943  43.4523 316.9142 14.43159024651929"}}, "geometry": {"type": "Point", "coordinates": [-63.67949493551957, 16.006206023984543]}}]}